[{"OBJECT_NAME":"UNKNOWN","OBJECT_ID":"","EPOCH":"2026-03-06T09:07:53.971392","MEAN_MOTION":13.78981777,"ECCENTRICITY":0.0119895,"INCLINATION":66.7972,"RA_OF_ASC_NODE":211.776,"ARG_OF_PERICENTER":269.5515,"MEAN_ANOMALY":89.1819,"EPHEMERIS_TYPE":0,"CLASSIFICATION_TYPE":"U","NORAD_CAT_ID":81359,"ELEMENT_SET_NO":999,"REV_AT_EPOCH":61701,"BSTAR":0.0011015,"MEAN_MOTION_DOT":1.113e-5,"MEAN_MOTION_DDOT":0},{"OBJECT_NAME":"UNKNOWN","OBJECT_ID":"","EPOCH":"2026-03-02T22:18:46.060128","MEAN_MOTION":13.45377095,"ECCENTRICITY":0.0712435,"INCLINATION":65.8803,"RA_OF_ASC_NODE":242.2206,"ARG_OF_PERICENTER":42.5375,"MEAN_ANOMALY":322.866,"EPHEMERIS_TYPE":0,"CLASSIFICATION_TYPE":"U","NORAD_CAT_ID":81366,"ELEMENT_SET_NO":999,"REV_AT_EPOCH":7674,"BSTAR":0.00032297,"MEAN_MOTION_DOT":8.39e-6,"MEAN_MOTION_DDOT":0},{"OBJECT_NAME":"UNKNOWN","OBJECT_ID":"","EPOCH":"2026-03-06T12:38:08.752416","MEAN_MOTION":14.71141372,"ECCENTRICITY":0.0070126,"INCLINATION":98.8098,"RA_OF_ASC_NODE":173.714,"ARG_OF_PERICENTER":103.6937,"MEAN_ANOMALY":257.2087,"EPHEMERIS_TYPE":0,"CLASSIFICATION_TYPE":"U","NORAD_CAT_ID":81371,"ELEMENT_SET_NO":999,"REV_AT_EPOCH":65415,"BSTAR":0.00085451,"MEAN_MOTION_DOT":5.407e-5,"MEAN_MOTION_DDOT":0},{"OBJECT_NAME":"UNKNOWN","OBJECT_ID":"","EPOCH":"2026-03-04T17:54:07.486272","MEAN_MOTION":13.82274067,"ECCENTRICITY":0.0039118,"INCLINATION":100.4046,"RA_OF_ASC_NODE":65.3082,"ARG_OF_PERICENTER":183.0651,"MEAN_ANOMALY":355.2593,"EPHEMERIS_TYPE":0,"CLASSIFICATION_TYPE":"U","NORAD_CAT_ID":81392,"ELEMENT_SET_NO":999,"REV_AT_EPOCH":61350,"BSTAR":0.0034598,"MEAN_MOTION_DOT":3.705e-5,"MEAN_MOTION_DDOT":0},{"OBJECT_NAME":"UNKNOWN","OBJECT_ID":"","EPOCH":"2026-03-03T22:47:31.364448","MEAN_MOTION":13.89145588,"ECCENTRICITY":0.0157918,"INCLINATION":99.4597,"RA_OF_ASC_NODE":117.4079,"ARG_OF_PERICENTER":7.0973,"MEAN_ANOMALY":353.2369,"EPHEMERIS_TYPE":0,"CLASSIFICATION_TYPE":"U","NORAD_CAT_ID":81405,"ELEMENT_SET_NO":999,"REV_AT_EPOCH":57307,"BSTAR":0.0012527,"MEAN_MOTION_DOT":1.635e-5,"MEAN_MOTION_DDOT":0},{"OBJECT_NAME":"UNKNOWN","OBJECT_ID":"","EPOCH":"2026-03-06T03:06:35.149536","MEAN_MOTION":14.07093319,"ECCENTRICITY":0.0083932,"INCLINATION":98.7436,"RA_OF_ASC_NODE":309.5698,"ARG_OF_PERICENTER":162.744,"MEAN_ANOMALY":197.6613,"EPHEMERIS_TYPE":0,"CLASSIFICATION_TYPE":"U","NORAD_CAT_ID":81427,"ELEMENT_SET_NO":999,"REV_AT_EPOCH":56349,"BSTAR":0.0002922,"MEAN_MOTION_DOT":4.62e-6,"MEAN_MOTION_DDOT":0},{"OBJECT_NAME":"UNKNOWN","OBJECT_ID":"","EPOCH":"2026-03-05T09:02:18.324672","MEAN_MOTION":13.55193005,"ECCENTRICITY":0.0048927,"INCLINATION":100.3256,"RA_OF_ASC_NODE":304.7008,"ARG_OF_PERICENTER":239.6708,"MEAN_ANOMALY":119.9582,"EPHEMERIS_TYPE":0,"CLASSIFICATION_TYPE":"U","NORAD_CAT_ID":81438,"ELEMENT_SET_NO":999,"REV_AT_EPOCH":60313,"BSTAR":0.0043174,"MEAN_MOTION_DOT":2.957e-5,"MEAN_MOTION_DDOT":0},{"OBJECT_NAME":"UNKNOWN","OBJECT_ID":"","EPOCH":"2026-03-05T04:27:28.731744","MEAN_MOTION":12.62651463,"ECCENTRICITY":0.059605,"INCLINATION":67.1625,"RA_OF_ASC_NODE":342.3805,"ARG_OF_PERICENTER":152.4216,"MEAN_ANOMALY":210.9808,"EPHEMERIS_TYPE":0,"CLASSIFICATION_TYPE":"U","NORAD_CAT_ID":81439,"ELEMENT_SET_NO":999,"REV_AT_EPOCH":27230,"BSTAR":0.00145,"MEAN_MOTION_DOT":4.67e-6,"MEAN_MOTION_DDOT":0},{"OBJECT_NAME":"UNKNOWN","OBJECT_ID":"","EPOCH":"2026-03-06T12:24:37.619712","MEAN_MOTION":15.17099882,"ECCENTRICITY":0.002332,"INCLINATION":66.7879,"RA_OF_ASC_NODE":104.8177,"ARG_OF_PERICENTER":18.461,"MEAN_ANOMALY":341.7374,"EPHEMERIS_TYPE":0,"CLASSIFICATION_TYPE":"U","NORAD_CAT_ID":81449,"ELEMENT_SET_NO":999,"REV_AT_EPOCH":64618,"BSTAR":0.0063799,"MEAN_MOTION_DOT":0.00129882,"MEAN_MOTION_DDOT":0},{"OBJECT_NAME":"UNKNOWN","OBJECT_ID":"","EPOCH":"2026-03-06T06:10:27.255360","MEAN_MOTION":14.2902238,"ECCENTRICITY":0.0145498,"INCLINATION":98.9513,"RA_OF_ASC_NODE":344.3498,"ARG_OF_PERICENTER":115.388,"MEAN_ANOMALY":35.2014,"EPHEMERIS_TYPE":0,"CLASSIFICATION_TYPE":"U","NORAD_CAT_ID":81478,"ELEMENT_SET_NO":999,"REV_AT_EPOCH":63486,"BSTAR":0.0014733,"MEAN_MOTION_DOT":4.134e-5,"MEAN_MOTION_DDOT":0},{"OBJECT_NAME":"UNKNOWN","OBJECT_ID":"","EPOCH":"2026-03-06T14:30:16.276320","MEAN_MOTION":13.5655134,"ECCENTRICITY":0.0044632,"INCLINATION":99.9933,"RA_OF_ASC_NODE":304.4898,"ARG_OF_PERICENTER":150.8726,"MEAN_ANOMALY":239.9146,"EPHEMERIS_TYPE":0,"CLASSIFICATION_TYPE":"U","NORAD_CAT_ID":81488,"ELEMENT_SET_NO":999,"REV_AT_EPOCH":60800,"BSTAR":0.00040812,"MEAN_MOTION_DOT":2.44e-6,"MEAN_MOTION_DDOT":0},{"OBJECT_NAME":"UNKNOWN","OBJECT_ID":"","EPOCH":"2026-03-01T23:31:12.157248","MEAN_MOTION":13.84808267,"ECCENTRICITY":0.0027031,"INCLINATION":100.2999,"RA_OF_ASC_NODE":328.2356,"ARG_OF_PERICENTER":170.175,"MEAN_ANOMALY":255.6004,"EPHEMERIS_TYPE":0,"CLASSIFICATION_TYPE":"U","NORAD_CAT_ID":81497,"ELEMENT_SET_NO":999,"REV_AT_EPOCH":22726,"BSTAR":0.0033385,"MEAN_MOTION_DOT":3.724e-5,"MEAN_MOTION_DDOT":0},{"OBJECT_NAME":"UNKNOWN","OBJECT_ID":"","EPOCH":"2026-03-06T09:44:50.410464","MEAN_MOTION":14.47678161,"ECCENTRICITY":0.0002728,"INCLINATION":74.0478,"RA_OF_ASC_NODE":64.7347,"ARG_OF_PERICENTER":235.8602,"MEAN_ANOMALY":124.2298,"EPHEMERIS_TYPE":0,"CLASSIFICATION_TYPE":"U","NORAD_CAT_ID":81499,"ELEMENT_SET_NO":999,"REV_AT_EPOCH":49452,"BSTAR":0.0011323,"MEAN_MOTION_DOT":4.153e-5,"MEAN_MOTION_DDOT":0},{"OBJECT_NAME":"UNKNOWN","OBJECT_ID":"","EPOCH":"2026-03-06T04:09:12.180960","MEAN_MOTION":14.13637785,"ECCENTRICITY":0.0233541,"INCLINATION":98.1904,"RA_OF_ASC_NODE":145.5466,"ARG_OF_PERICENTER":267.0342,"MEAN_ANOMALY":90.4087,"EPHEMERIS_TYPE":0,"CLASSIFICATION_TYPE":"U","NORAD_CAT_ID":81535,"ELEMENT_SET_NO":999,"REV_AT_EPOCH":39918,"BSTAR":0.00047752,"MEAN_MOTION_DOT":1.126e-5,"MEAN_MOTION_DDOT":0},{"OBJECT_NAME":"UNKNOWN","OBJECT_ID":"","EPOCH":"2026-03-05T08:55:09.905952","MEAN_MOTION":12.55976218,"ECCENTRICITY":0.0018378,"INCLINATION":101.9676,"RA_OF_ASC_NODE":291.4387,"ARG_OF_PERICENTER":119.6505,"MEAN_ANOMALY":62.2506,"EPHEMERIS_TYPE":0,"CLASSIFICATION_TYPE":"U","NORAD_CAT_ID":81536,"ELEMENT_SET_NO":999,"REV_AT_EPOCH":56218,"BSTAR":0.0044777,"MEAN_MOTION_DOT":6.91e-6,"MEAN_MOTION_DDOT":0},{"OBJECT_NAME":"UNKNOWN","OBJECT_ID":"","EPOCH":"2026-03-02T08:52:38.100288","MEAN_MOTION":14.07156543,"ECCENTRICITY":0.0075868,"INCLINATION":71.0398,"RA_OF_ASC_NODE":304.5004,"ARG_OF_PERICENTER":31.01,"MEAN_ANOMALY":329.5464,"EPHEMERIS_TYPE":0,"CLASSIFICATION_TYPE":"U","NORAD_CAT_ID":81537,"ELEMENT_SET_NO":999,"REV_AT_EPOCH":63166,"BSTAR":0.00019949,"MEAN_MOTION_DOT":2.97e-6,"MEAN_MOTION_DDOT":0},{"OBJECT_NAME":"UNKNOWN","OBJECT_ID":"","EPOCH":"2026-03-03T23:46:20.775936","MEAN_MOTION":13.18320008,"ECCENTRICITY":0.0257007,"INCLINATION":99.068,"RA_OF_ASC_NODE":343.5122,"ARG_OF_PERICENTER":182.822,"MEAN_ANOMALY":177.1461,"EPHEMERIS_TYPE":0,"CLASSIFICATION_TYPE":"U","NORAD_CAT_ID":81552,"ELEMENT_SET_NO":999,"REV_AT_EPOCH":58995,"BSTAR":0.0017859,"MEAN_MOTION_DOT":7.96e-6,"MEAN_MOTION_DDOT":0}]
